{"fetched_at":"2026-03-29T16:36:15Z","count":15609,"tles":[{"name":"STARLINK-36489","line1":"1 67328U 26002Z   26087.76191409  .00023141  00000+0  84716-3 0  9995","line2":"2 67328  43.0015 217.7331 0001614 251.5703 108.4973 15.27604641 14159","category":"Starlink"}]}